start=new Date('2022-01-25T00:00:00.000Z').valueOf();
sats=[{"OBJECT_NAME":"STARLINK-3268","DECAY_DATE":null,"ARG_OF_PERICENTER":"39.5253","PERIOD":"91.534","OBJECT_ID":"2021-125AL","PERIAPSIS":"348.774","RCS_SIZE":"LARGE","GP_ID":"194572807","REF_FRAME":"TEME","REV_AT_EPOCH":"369","CENTER_NAME":"EARTH","BSTAR":"0.00008347400000","FILE":"3282614","TIME_SYSTEM":"UTC","TLE_LINE2":"2 50190  53.2161 180.5156 0001551  39.5253 358.8165 15.73180008  3697","ELEMENT_SET_NO":"999","EPHEMERIS_TYPE":"0","CLASSIFICATION_TYPE":"U","EPOCH":"2022-01-24T22:00:00.999936","MEAN_MOTION":"15.73180008","ECCENTRICITY":"0.00015510","INCLINATION":"53.2161","MEAN_ANOMALY":"358.8165","APOAPSIS":"350.861","RA_OF_ASC_NODE":"180.5156","COUNTRY_CODE":"US","MEAN_MOTION_DDOT":"0.0000000000000","MEAN_ELEMENT_THEORY":"SGP4","NORAD_CAT_ID":"50190","SITE":"AFWTR","TLE_LINE1":"1 50190U 21125AL  22024.91667824  .00011100  00000-0  83474-4 0  9992","OBJECT_TYPE":"PAYLOAD","SEMIMAJOR_AXIS":"6727.952","LAUNCH_DATE":"2021-12-18","MEAN_MOTION_DOT":"0.00011100"},{"MEAN_ELEMENT_THEORY":"SGP4","NORAD_CAT_ID":"50191","TLE_LINE1":"1 50191U 21125AM  22024.91667824 -.00652849  00000-0 -86895-2 0  9994","SITE":"AFWTR","OBJECT_TYPE":"PAYLOAD","SEMIMAJOR_AXIS":"6766.674","LAUNCH_DATE":"2021-12-18","MEAN_MOTION_DOT":"-0.00652849","EPOCH":"2022-01-24T22:00:00.999936","MEAN_MOTION":"15.59695677","ECCENTRICITY":"0.00013120","MEAN_ANOMALY":"97.3962","INCLINATION":"53.2173","APOAPSIS":"389.427","COUNTRY_CODE":"US","RA_OF_ASC_NODE":"180.9497","MEAN_MOTION_DDOT":"0.0000000000000","RCS_SIZE":"LARGE","GP_ID":"194573550","REV_AT_EPOCH":"369","REF_FRAME":"TEME","CENTER_NAME":"EARTH","BSTAR":"-0.00868950000000","FILE":"3282614","TIME_SYSTEM":"UTC","TLE_LINE2":"2 50191  53.2173 180.9497 0001312  61.0117  97.3962 15.59695677  3694","ELEMENT_SET_NO":"999","EPHEMERIS_TYPE":"0","CLASSIFICATION_TYPE":"U","OBJECT_NAME":"STARLINK-3273","DECAY_DATE":null,"ARG_OF_PERICENTER":"61.0117","PERIOD":"92.326","OBJECT_ID":"2021-125AM","PERIAPSIS":"387.651"},{"ECCENTRICITY":"0.00015210","INCLINATION":"53.2159","MEAN_ANOMALY":"355.1757","EPOCH":"2022-01-24T22:00:00.999936","MEAN_MOTION":"15.73165722","MEAN_MOTION_DDOT":"0.0000000000000","APOAPSIS":"350.881","COUNTRY_CODE":"US","RA_OF_ASC_NODE":"180.5133","NORAD_CAT_ID":"50192","MEAN_ELEMENT_THEORY":"SGP4","SEMIMAJOR_AXIS":"6727.993","LAUNCH_DATE":"2021-12-18","MEAN_MOTION_DOT":"0.00065415","TLE_LINE1":"1 50192U 21125AN  22024.91667824  .00065415  00000-0  46756-3 0  9993","SITE":"AFWTR","OBJECT_TYPE":"PAYLOAD","OBJECT_NAME":"STARLINK-3259","DECAY_DATE":null,"OBJECT_ID":"2021-125AN","PERIAPSIS":"348.835","ARG_OF_PERICENTER":"44.1113","PERIOD":"91.535","RCS_SIZE":"LARGE","GP_ID":"194571806","TLE_LINE2":"2 50192  53.2159 180.5133 0001521  44.1113 355.1757 15.73165722  3698","CLASSIFICATION_TYPE":"U","ELEMENT_SET_NO":"999","EPHEMERIS_TYPE":"0","BSTAR":"0.00046756000000","CENTER_NAME":"EARTH","REV_AT_EPOCH":"369","REF_FRAME":"TEME","TIME_SYSTEM":"UTC","FILE":"3282614"},{"NORAD_CAT_ID":"50193","MEAN_ELEMENT_THEORY":"SGP4","SEMIMAJOR_AXIS":"6727.960","LAUNCH_DATE":"2021-12-18","MEAN_MOTION_DOT":"0.00044265","OBJECT_TYPE":"PAYLOAD","TLE_LINE1":"1 50193U 21125AP  22024.91667824  .00044265  00000-0  31845-3 0  9997","SITE":"AFWTR","ECCENTRICITY":"0.00012770","MEAN_ANOMALY":"346.2165","INCLINATION":"53.2158","EPOCH":"2022-01-24T22:00:00.999936","MEAN_MOTION":"15.73177366","MEAN_MOTION_DDOT":"0.0000000000000","APOAPSIS":"350.684","RA_OF_ASC_NODE":"180.5187","COUNTRY_CODE":"US","RCS_SIZE":"LARGE","GP_ID":"194572056","TLE_LINE2":"2 50193  53.2158 180.5187 0001277  50.2456 346.2165 15.73177366  3694","ELEMENT_SET_NO":"999","EPHEMERIS_TYPE":"0","CLASSIFICATION_TYPE":"U","CENTER_NAME":"EARTH","BSTAR":"0.00031845000000","REF_FRAME":"TEME","REV_AT_EPOCH":"369","TIME_SYSTEM":"UTC","FILE":"3282614","OBJECT_NAME":"STARLINK-3261","DECAY_DATE":null,"OBJECT_ID":"2021-125AP","PERIAPSIS":"348.966","ARG_OF_PERICENTER":"50.2456","PERIOD":"91.534"},{"NORAD_CAT_ID":"50194","MEAN_ELEMENT_THEORY":"SGP4","MEAN_MOTION_DOT":"-0.00016198","LAUNCH_DATE":"2021-12-18","SEMIMAJOR_AXIS":"6727.860","TLE_LINE1":"1 50194U 21125AQ  22024.91667824 -.00016198  00000-0 -11116-3 0  9993","OBJECT_TYPE":"PAYLOAD","SITE":"AFWTR","MEAN_ANOMALY":"355.1175","INCLINATION":"53.2154","ECCENTRICITY":"0.00012400","MEAN_MOTION":"15.73212212","EPOCH":"2022-01-24T22:00:00.999936","MEAN_MOTION_DDOT":"0.0000000000000","COUNTRY_CODE":"US","RA_OF_ASC_NODE":"180.5099","APOAPSIS":"350.560","GP_ID":"194573307","RCS_SIZE":"LARGE","ELEMENT_SET_NO":"999","CLASSIFICATION_TYPE":"U","EPHEMERIS_TYPE":"0","TLE_LINE2":"2 50194  53.2154 180.5099 0001240  45.0403 355.1175 15.73212212  3697","FILE":"3282614","TIME_SYSTEM":"UTC","REF_FRAME":"TEME","REV_AT_EPOCH":"369","BSTAR":"-0.00011116000000","CENTER_NAME":"EARTH","DECAY_DATE":null,"OBJECT_NAME":"STARLINK-3269","PERIAPSIS":"348.891","OBJECT_ID":"2021-125AQ","PERIOD":"91.532","ARG_OF_PERICENTER":"45.0403"},{"ARG_OF_PERICENTER":"55.8782","PERIOD":"91.534","OBJECT_ID":"2021-125AR","PERIAPSIS":"348.850","OBJECT_NAME":"STARLINK-3266","DECAY_DATE":null,"REV_AT_EPOCH":"369","REF_FRAME":"TEME","CENTER_NAME":"EARTH","BSTAR":"0.00022118000000","TIME_SYSTEM":"UTC","FILE":"3282614","TLE_LINE2":"2 50195  53.2171 180.5215 0001428  55.8782 341.4943 15.73182395  3693","EPHEMERIS_TYPE":"0","ELEMENT_SET_NO":"999","CLASSIFICATION_TYPE":"U","RCS_SIZE":"LARGE","GP_ID":"194573051","APOAPSIS":"350.771","COUNTRY_CODE":"US","RA_OF_ASC_NODE":"180.5215","MEAN_MOTION_DDOT":"0.0000000000000","EPOCH":"2022-01-24T22:00:00.999936","MEAN_MOTION":"15.73182395","ECCENTRICITY":"0.00014280","INCLINATION":"53.2171","MEAN_ANOMALY":"341.4943","SITE":"AFWTR","TLE_LINE1":"1 50195U 21125AR  22024.91667824  .00030510  00000-0  22118-3 0  9990","OBJECT_TYPE":"PAYLOAD","SEMIMAJOR_AXIS":"6727.945","LAUNCH_DATE":"2021-12-18","MEAN_MOTION_DOT":"0.00030510","MEAN_ELEMENT_THEORY":"SGP4","NORAD_CAT_ID":"50195"},{"ECCENTRICITY":"0.00014700","MEAN_ANOMALY":"4.1540","INCLINATION":"53.2158","EPOCH":"2022-01-24T22:00:00.999936","MEAN_MOTION":"15.73207001","MEAN_MOTION_DDOT":"0.0000000000000","APOAPSIS":"350.729","COUNTRY_CODE":"US","RA_OF_ASC_NODE":"180.5071","NORAD_CAT_ID":"50196","MEAN_ELEMENT_THEORY":"SGP4","SEMIMAJOR_AXIS":"6727.875","LAUNCH_DATE":"2021-12-18","MEAN_MOTION_DOT":"-0.00038028","SITE":"AFWTR","TLE_LINE1":"1 50196U 21125AS  22024.91667824 -.00038028  00000-0 -26767-3 0  9999","OBJECT_TYPE":"PAYLOAD","OBJECT_NAME":"STARLINK-3263","DECAY_DATE":null,"OBJECT_ID":"2021-125AS","PERIAPSIS":"348.751","ARG_OF_PERICENTER":"37.9316","PERIOD":"91.533","RCS_SIZE":"LARGE","GP_ID":"194572306","TLE_LINE2":"2 50196  53.2158 180.5071 0001470  37.9316   4.1540 15.73207001  3698","ELEMENT_SET_NO":"999","CLASSIFICATION_TYPE":"U","EPHEMERIS_TYPE":"0","BSTAR":"-0.00026767000000","CENTER_NAME":"EARTH","REV_AT_EPOCH":"369","REF_FRAME":"TEME","TIME_SYSTEM":"UTC","FILE":"3282614"},{"MEAN_MOTION_DDOT":"0.0000000000000","APOAPSIS":"350.825","RA_OF_ASC_NODE":"180.5118","COUNTRY_CODE":"US","ECCENTRICITY":"0.00014310","INCLINATION":"53.2166","MEAN_ANOMALY":"349.2152","EPOCH":"2022-01-24T22:00:00.999936","MEAN_MOTION":"15.73164244","SEMIMAJOR_AXIS":"6727.997","LAUNCH_DATE":"2021-12-18","MEAN_MOTION_DOT":"0.00032904","OBJECT_TYPE":"PAYLOAD","TLE_LINE1":"1 50197U 21125AT  22024.91667824  .00032904  00000-0  23830-3 0  9993","SITE":"AFWTR","NORAD_CAT_ID":"50197","MEAN_ELEMENT_THEORY":"SGP4","OBJECT_ID":"2021-125AT","PERIAPSIS":"348.899","ARG_OF_PERICENTER":"51.9345","PERIOD":"91.535","OBJECT_NAME":"STARLINK-3267","DECAY_DATE":null,"TLE_LINE2":"2 50197  53.2166 180.5118 0001431  51.9345 349.2152 15.73164244  3698","CLASSIFICATION_TYPE":"U","ELEMENT_SET_NO":"999","EPHEMERIS_TYPE":"0","REV_AT_EPOCH":"369","REF_FRAME":"TEME","BSTAR":"0.00023830000000","CENTER_NAME":"EARTH","TIME_SYSTEM":"UTC","FILE":"3282614","RCS_SIZE":"LARGE","GP_ID":"194572556"},{"MEAN_ANOMALY":"354.8187","INCLINATION":"53.2158","ECCENTRICITY":"0.00013120","MEAN_MOTION":"15.73179286","EPOCH":"2022-01-24T22:00:00.999936","MEAN_MOTION_DDOT":"0.0000000000000","COUNTRY_CODE":"US","RA_OF_ASC_NODE":"180.5012","APOAPSIS":"350.702","NORAD_CAT_ID":"50198","MEAN_ELEMENT_THEORY":"SGP4","MEAN_MOTION_DOT":"0.00017123","SEMIMAJOR_AXIS":"6727.954","LAUNCH_DATE":"2021-12-18","SITE":"AFWTR","TLE_LINE1":"1 50198U 21125AU  22024.91667824  .00017123  00000-0  12628-3 0  9993","OBJECT_TYPE":"PAYLOAD","DECAY_DATE":null,"OBJECT_NAME":"STARLINK-3264","PERIAPSIS":"348.937","OBJECT_ID":"2021-125AU","PERIOD":"91.534","ARG_OF_PERICENTER":"50.0678","GP_ID":"194572808","RCS_SIZE":"LARGE","CLASSIFICATION_TYPE":"U","ELEMENT_SET_NO":"999","EPHEMERIS_TYPE":"0","TLE_LINE2":"2 50198  53.2158 180.5012 0001312  50.0678 354.8187 15.73179286  3692","TIME_SYSTEM":"UTC","FILE":"3282614","CENTER_NAME":"EARTH","BSTAR":"0.00012628000000","REV_AT_EPOCH":"369","REF_FRAME":"TEME"},{"DECAY_DATE":null,"OBJECT_NAME":"STARLINK-3270","PERIOD":"91.535","ARG_OF_PERICENTER":"30.4283","PERIAPSIS":"348.655","OBJECT_ID":"2021-125AV","GP_ID":"194573551","RCS_SIZE":"LARGE","TIME_SYSTEM":"UTC","FILE":"3282614","BSTAR":"0.00023266000000","CENTER_NAME":"EARTH","REF_FRAME":"TEME","REV_AT_EPOCH":"368","ELEMENT_SET_NO":"999","CLASSIFICATION_TYPE":"U","EPHEMERIS_TYPE":"0","TLE_LINE2":"2 50199  53.2149 180.4813 0001785  30.4283  23.7900 15.73166373  3686","MEAN_MOTION":"15.73166373","EPOCH":"2022-01-24T22:00:00.999936","MEAN_ANOMALY":"23.7900","INCLINATION":"53.2149","ECCENTRICITY":"0.00017850","COUNTRY_CODE":"US","RA_OF_ASC_NODE":"180.4813","APOAPSIS":"351.057","MEAN_MOTION_DDOT":"0.0000000000000","MEAN_ELEMENT_THEORY":"SGP4","NORAD_CAT_ID":"50199","OBJECT_TYPE":"PAYLOAD","TLE_LINE1":"1 50199U 21125AV  22024.91667824  .00032111  00000-0  23266-3 0  9998","SITE":"AFWTR","MEAN_MOTION_DOT":"0.00032111","SEMIMAJOR_AXIS":"6727.991","LAUNCH_DATE":"2021-12-18"}];
